STARLINK-3750           
1 52311U 22041BC  22125.58334491 -.00021670  00000+0 -15042-3 0  9992
2 52311  53.2152 305.9917 0001556  58.7019 162.7651 15.73192613  2843
STARLINK-3752           
1 52312U 22041BD  22125.58334491 -.00061840  00000+0 -43875-3 0  9991
2 52312  53.2152 305.9878 0001260  56.7984 165.8269 15.73236601  2846
STARLINK-3749           
1 52313U 22041BE  22125.58334491  .00645550  00000+0  43421-2 0  9992
2 52313  53.2169 305.9886 0001364  61.6143 161.6602 15.72749560  2848
FALCON 9 DEB            
1 52314U 22041BF  22125.51053571  .00309989  47831-4  86518-3 0  9999
2 52314  53.2075 305.2035 0014427 322.0169  37.9841 15.93025299  2209
FALCON 9 DEB            
1 52315U 22041BG  22125.50759446  .00306275  47086-4  84068-3 0  9998
2 52315  53.2073 305.1854 0014760 329.6801  30.3373 15.93333612  2200
FALCON 9 DEB            
1 52316U 22041BH  22125.49740611  .00326845  53006-4  83335-3 0  9991
2 52316  53.2088 305.1226 0010647 322.3064  37.7218 15.94800571  2204
FALCON 9 DEB            
1 52317U 22041BJ  22125.49347332  .00366944  64766-4  89767-3 0  9999
2 52317  53.2108 305.0990 0010736 338.0889  21.9680 15.95545283  2208
DRAGON FREEDOM          
1 52318U 22042A   22124.55479396  .00007524  00000+0  14001-3 0  9994
2 52318  51.6431 192.6803 0006588  64.9982  76.0228 15.49924524338414
AXIOM-1 DEB             
1 52319U 22037B   22125.58968088  .01037481  11327-4  10664-2 0  9999
2 52319  51.8841 184.0959 0084779 204.8763 154.8144 16.02661261  1582
2022-043A               
1 52320U 22043A   22125.58876813  .00008375  00000+0  35154-3 0  9994
2 52320  97.4730 201.2318 0011997 250.3877 109.6072 15.23656170   988
2022-043B               
1 52321U 22043B   22125.45521526  .00024643  00000+0  10068-2 0  9991
2 52321  97.4729 201.1040 0012673 261.9851  97.9940 15.24297822   967
2022-043C               
1 52322U 22043C   22125.58569028  .00008737  00000+0  35866-3 0  9995
2 52322  97.4730 201.2351 0012430 265.5488  94.4333 15.24390746   982
2022-043D               
1 52323U 22043D   22125.17807572  .00017187  00000+0  31735-3 0  9990
2 52323  97.5658 201.1916 0090196   3.8866 356.3055 15.44683203   938
2022-043E               
1 52324U 22043E   22125.51217232  .00059766  00000+0  22580-2 0  9993
2 52324  97.4650 201.1763 0018221 282.2301  77.6908 15.26617947   972
2022-043F               
1 52325U 22043F   22125.46695330  .00029162  00000+0  17553-2 0  9998
2 52325  97.2234 200.7911 0112746 192.9429 166.8899 15.05505993   945
2022-043G               
1 52326U 22043G   22125.48016512  .00018974  00000+0  16989-2 0  9991
2 52326  97.2952 200.6716 0160088 142.8018 218.4171 14.86481893   931
2022-043H               
1 52327U 22043H   22125.46959054  .00024311  00000+0  14627-2 0  9996
2 52327  97.7117 201.0727 0120778 195.2490 164.4720 15.04824155   950
2022-043J               
1 52328U 22043J   22125.48291997  .00019059  00000+0  17244-2 0  9995
2 52328  97.7307 200.9143 0162646 143.7591 217.4664 14.85821733   922
COSMOS 2555             
1 52330U 22044A   22125.66227293  .00699094  23229-3  12070-2 0  9994
2 52330  96.4399 215.8760 0011552 231.7820 235.1648 16.02265289   911
STARLINK-3889           
1 52331U 22045A   22125.58334491 -.00873935  00000+0 -46820-2 0  9994
2 52331  53.2174  48.2281 0001074  68.1072  53.2624 15.81813726  1419
STARLINK-3831           
1 52332U 22045B   22125.58334491 -.00873760  00000+0 -46942-2 0  9996
2 52332  53.2174  48.2292 0001061  69.3287  51.2327 15.81753755  1412
STARLINK-3847           
1 52333U 22045C   22125.58334491 -.00873820  00000+0 -46908-2 0  9996
2 52333  53.2174  48.2290 0001070  66.5778  54.3036 15.81770705  1410
STARLINK-3880           
1 52334U 22045D   22125.58334491 -.00873794  00000+0 -46768-2 0  9991
2 52334  53.2174  48.2267 0001090  63.4584  58.1811 15.81833457  1415
STARLINK-3814           
1 52335U 22045E   22125.58334491 -.00873876  00000+0 -46729-2 0  9990
2 52335  53.2174  48.2267 0001114  61.6724  60.2393 15.81853189  1412
STARLINK-3823           
1 52336U 22045F   22125.58334491 -.00873760  00000+0 -46675-2 0  9993
2 52336  53.2174  48.2257 0001149  58.4569  63.6994 15.81874373  1413
STARLINK-3797           
1 52337U 22045G   22125.58334491 -.00873893  00000+0 -46866-2 0  9993
2 52337  53.2174  48.2283 0001071  68.6474  52.4869 15.81791736  1424
STARLINK-3815           
1 52338U 22045H   22125.58334491 -.00873826  00000+0 -46547-2 0  9996
2 52338  53.2174  48.2240 0001154  58.0339  64.9133 15.81934482  1411
STARLINK-3792           
1 52339U 22045J   22125.58334491 -.00873882  00000+0 -46594-2 0  9991
2 52339  53.2174  48.2249 0001091  64.8706  57.8034 15.81915090  1420
STARLINK-3818           
1 52340U 22045K   22125.58334491 -.00874077  00000+0 -46427-2 0  9995
2 52340  53.2174  48.2223 0001114  63.4020  60.3004 15.81996428  1413
STARLINK-3843           
1 52341U 22045L   22125.58334491 -.00874050  00000+0 -46650-2 0  9995
2 52341  53.2174  48.2253 0001059  73.3613  49.0629 15.81894364  1416
STARLINK-3850           
1 52342U 22045M   22125.58334491 -.00873968  00000+0 -46340-2 0  9999
2 52342  53.2174  48.2210 0001120  62.3078  61.9654 15.82033299  1416
STARLINK-3849           
1 52343U 22045N   22125.58334491 -.00873897  00000+0 -46506-2 0  9995
2 52343  53.2174  48.2235 0001147  57.8410  65.3580 15.81955177  1415
STARLINK-3851           
1 52344U 22045P   22125.58334491 -.00873956  00000+0 -46250-2 0  9998
2 52344  53.2174  48.2198 0001100  63.9655  60.8047 15.82074419  1412
STARLINK-3852           
1 52345U 22045Q   22125.58334491 -.00873975  00000+0 -46468-2 0  9991
2 52345  53.2174  48.2230 0001051  73.6791  49.7764 15.81975497  1411
STARLINK-3812           
1 52346U 22045R   22125.58334491 -.00873928  00000+0 -46204-2 0  9998
2 52346  53.2174  48.2192 0001111  63.2525  61.7698 15.82094701  1417
STARLINK-3826           
1 52347U 22045S   22125.58334491 -.00873792  00000+0 -46369-2 0  9990
2 52347  53.2174  48.2218 0001156  57.5817  66.4020 15.82014954  1419
STARLINK-3829           
1 52348U 22045T   22125.58334491 -.00873897  00000+0 -46114-2 0  9995
2 52348  53.2174  48.2180 0001175  56.4006  69.1338 15.82134675  1412
STARLINK-3819           
1 52349U 22045U   22125.58334491 -.00873917  00000+0 -46291-2 0  9995
2 52349  53.2174  48.2206 0001141  59.6188  64.8973 15.82054207  1410
STARLINK-3754           
1 52350U 22045V   22125.58334491 -.00874245  00000+0 -46093-2 0  9992
2 52350  53.2174  48.2174 0001059  75.1341  50.6588 15.82154692  1490
STARLINK-3816           
1 52351U 22045W   22125.58334491 -.00873864  00000+0 -46155-2 0  9998
2 52351  53.2174  48.2189 0001156  58.0573  67.2138 15.82115101  1411
STARLINK-3838           
1 52352U 22045X   22125.58334491 -.00873965  00000+0 -45944-2 0  9996
2 52352  53.2174  48.2158 0001138  58.2768  68.2647 15.82215152  1419
STARLINK-3807           
1 52353U 22045Y   22125.58334491 -.00874154  00000+0 -46045-2 0  9991
2 52353  53.2174  48.2172 0001068  69.3736  56.6792 15.82174278  1411
STARLINK-3876           
1 52354U 22045Z   22125.58334491 -.00874317  00000+0 -45798-2 0  9997
2 52354  53.2174  48.2135 0001044  75.5050  52.0826 15.82292849  1416
STARLINK-3877           
1 52355U 22045AA  22125.58334491 -.00874037  00000+0 -45993-2 0  9994
2 52355  53.2174  48.2166 0001096  65.6961  60.5988 15.82194843  1417
STARLINK-3801           
1 52356U 22045AB  22125.58334491 -.00874286  00000+0 -45882-2 0  9998
2 52356  53.2174  48.2145 0001034  82.1892  44.8908 15.82253275  1438
STARLINK-3821           
1 52357U 22045AC  22125.58334491 -.00874385  00000+0 -45928-2 0  9990
2 52357  53.2174  48.2155 0001055  76.6596  50.1494 15.82234514  1415
STARLINK-3837           
1 52358U 22045AD  22125.58334491 -.00874291  00000+0 -45662-2 0  9992
2 52358  53.2174  48.2119 0001060  72.7810  55.5133 15.82354965  1410
STARLINK-3853           
1 52359U 22045AE  22125.58334491 -.00874273  00000+0 -45835-2 0  9995
2 52359  53.2174  48.2143 0001068  72.2097  55.1026 15.82274336  1418
STARLINK-3824           
1 52360U 22045AF  22125.58334491 -.00874228  00000+0 -45575-2 0  9998
2 52360  53.2174  48.2108 0001086  68.0896  60.7230 15.82393422  1418
STARLINK-3728           
1 52361U 22045AG  22125.58334491 -.00874279  00000+0 -45751-2 0  9991
2 52361  53.2174  48.2132 0001051  75.6574  52.1673 15.82313499  1507
STARLINK-3848           
1 52362U 22045AH  22125.58334491 -.00874478  00000+0 -45546-2 0  9995
2 52362  53.2174  48.2102 0001020  82.9625  46.0851 15.82414149  1413
STARLINK-3830           
1 52363U 22045AJ  22125.58334491 -.00874364  00000+0 -45711-2 0  9994
2 52363  53.2174  48.2127 0001036  78.7390  49.3182 15.82334431  1418
STARLINK-3820           
1 52364U 22045AK  22125.58334491 -.00874532  00000+0 -45464-2 0  9997
2 52364  53.2174  48.2091 0001070  74.5037  55.0487 15.82453238  1418
STARLINK-3874           
1 52365U 22045AL  22125.58334491 -.00874415  00000+0 -45629-2 0  9991
2 52365  53.2174  48.2116 0001024  79.9972  48.5634 15.82373913  1415
STARLINK-3808           
1 52366U 22045AM  22125.58334491 -.00874527  00000+0 -45380-2 0  9990
2 52366  53.2174  48.2080 0001044  76.6980  53.3527 15.82492448  1411
STARLINK-3817           
1 52367U 22045AN  22125.58334491 -.00874364  00000+0 -45498-2 0  9990
2 52367  53.2174  48.2100 0001054  74.3488  54.9599 15.82433109  1419
STARLINK-3834           
1 52368U 22045AP  22125.58334491 -.00874646  00000+0 -45265-2 0  9996
2 52368  53.2174  48.2063 0001045  78.6416  52.1891 15.82549231  1415
STARLINK-3841           
1 52369U 22045AQ  22125.58334491 -.00874556  00000+0 -45424-2 0  9994
2 52369  53.2174  48.2089 0001038  78.5231  51.2802 15.82472776  1411
STARLINK-3827           
1 52370U 22045AR  22125.58334491 -.00874511  00000+0 -45338-2 0  9991
2 52370  53.2174  48.2074 0001073  73.2574  57.0540 15.82511334  1415
